ONEWEB-0113             
1 48050U 21025J   23263.22296964  .00000110  00000+0  26538-3 0  9991
2 48050  87.9014 159.4018 0001968  77.1458 282.9890 13.13473231122182
ONEWEB-0112             
1 48051U 21025K   23263.43881528 -.00000296  00000+0 -84534-3 0  9998
2 48051  87.9074 159.3240 0001741  74.9794 285.1528 13.13468943122224
ONEWEB-0156             
1 48052U 21025L   23263.44938188 -.00000063  00000+0 -20689-3 0  9998
2 48052  87.9003 159.3377 0001779  74.9820 285.1505 13.13470819122207
ONEWEB-0161             
1 48053U 21025M   23263.42187376 -.00000057  00000+0 -19217-3 0  9990
2 48053  87.9070 159.3275 0001745  67.6651 292.4663 13.13467623122130
ONEWEB-0158             
1 48054U 21025N   23263.61444104  .00000175  00000+0  44310-3 0  9998
2 48054  87.8997 159.3113 0001965  82.9744 277.1608 13.13473340122284
ONEWEB-0157             
1 48055U 21025P   23263.40918103  .00000320  00000+0  84126-3 0  9992
2 48055  87.9078 159.3344 0001638  69.1678 290.9626 13.13468354122194
ONEWEB-0162             
1 48056U 21025Q   23263.44728042 -.00000179  00000+0 -52602-3 0  9996
2 48056  87.9074 159.3257 0001752  76.3319 283.8005 13.13472508122179
ONEWEB-0155             
1 48057U 21025R   23263.23990391  .00000413  00000+0  10958-2 0  9998
2 48057  87.9078 159.3728 0001867  73.5404 286.5930 13.13472421122281
ONEWEB-0149             
1 48058U 21025S   23263.41340936 -.00000154  00000+0 -45642-3 0  9996
2 48058  87.9078 159.3365 0001379  79.6630 280.4655 13.13469714122115
ONEWEB-0148             
1 48059U 21025T   23263.45361968  .00000048  00000+0  97494-4 0  9992
2 48059  87.9071 159.3369 0000976  71.6356 288.4879 13.13472897122248
ONEWEB-0160             
1 48060U 21025U   23263.24202624  .00000469  00000+0  12500-2 0  9994
2 48060  87.9074 159.3757 0002601  93.1132 267.0295 13.13471358122169
ONEWEB-0163             
1 48061U 21025V   23263.45574913 -.00000010  00000+0 -61561-4 0  9998
2 48061  87.9077 159.3236 0001860  64.8087 295.3235 13.13471958122327
ONEWEB-0159             
1 48062U 21025W   23263.44516488 -.00000239  00000+0 -68950-3 0  9992
2 48062  87.9003 159.3298 0001541  77.6349 282.4953 13.13468543122234
ONEWEB-0164             
1 48063U 21025X   23263.42610579 -.00000182  00000+0 -53249-3 0  9999
2 48063  87.9079 159.3243 0002020  73.0780 287.0570 13.13468390122214
ONEWEB-0167             
1 48064U 21025Y   23263.45679537  .00000131  00000+0  32276-3 0  9991
2 48064  87.9076 159.3276 0001733  68.1648 291.9665 13.13472530122205
ONEWEB-0166             
1 48065U 21025Z   23263.25049309  .00000400  00000+0  10599-2 0  9990
2 48065  87.9076 159.3621 0001577  75.8251 284.3053 13.13469404122259
ONEWEB-0151             
1 48066U 21025AA  23263.40495335  .00000420  00000+0  11151-2 0  9999
2 48066  87.9078 159.3388 0002102  74.2373 285.8988 13.13468761122219
ONEWEB-0170             
1 48067U 21025AB  23263.25894223  .00000176  00000+0  44792-3 0  9998
2 48067  87.9079 159.3669 0002515  80.7629 279.3784 13.13468478122157
ONEWEB-0168             
1 48068U 21025AC  23263.47266739  .00000335  00000+0  88149-3 0  9999
2 48068  87.9002 159.3449 0001683  74.8916 285.2400 13.13469039122197
ONEWEB-0173             
1 48069U 21025AD  23263.46631931  .00000291  00000+0  76058-3 0  9996
2 48069  87.9003 159.3613 0001972  59.5050 300.6273 13.13469508122430
ONEWEB-0171             
1 48070U 21025AE  23263.42400769 -.00000138  00000+0 -41149-3 0  9992
2 48070  87.9075 159.3496 0002015  70.4322 289.7025 13.13468947122240
ONEWEB-0172             
1 48071U 21025AF  23263.25367455  .00000322  00000+0  84712-3 0  9994
2 48071  87.9073 159.3523 0002041  66.2628 293.8715 13.13470824123117
ONEWEB-0174             
1 48072U 21025AG  23263.46418930 -.00000272  00000+0 -78072-3 0  9991
2 48072  87.9070 159.3263 0001523  76.6399 283.4900 13.13469654122467
ONEWEB-0175             
1 48073U 21025AH  23263.41549415  .00004859  00000+0  13257-1 0  9995
2 48073  87.9076 159.3290 0002542  70.8039 289.3365 13.13506386122119
ONEWEB-0177             
1 48074U 21025AJ  23263.42823246 -.00000176  00000+0 -51754-3 0  9990
2 48074  87.9076 159.3299 0001762  55.2873 304.8422 13.13471660122309
ONEWEB-0178             
1 48075U 21025AK  23263.44621886 -.00000192  00000+0 -55929-3 0  9995
2 48075  87.9071 159.3328 0001686  66.6812 293.4494 13.13469388122353
ONEWEB-0108             
1 48076U 21025AL  23263.48324770  .00000234  00000+0  60644-3 0  9997
2 48076  87.9076 159.3190 0001792  81.0585 279.0747 13.13472144122290
ONEWEB-0169             
1 48077U 21025AM  23263.43668284 -.00000647  00000+0 -18060-2 0  9998
2 48077  87.9079 159.3296 0001598  86.7518 273.3793 13.13470389122177
ONEWEB-0176             
1 48210U 21031A   23263.60992013  .00000216  00000+0  54889-3 0  9993
2 48210  87.8984 128.8831 0001747  78.0688 282.0638 13.14503868116868
ONEWEB-0184             
1 48211U 21031B   23263.58453589 -.00000485  00000+0 -13425-2 0  9991
2 48211  87.8993 128.8686 0002828  69.0660 291.0772 13.14501109116830
ONEWEB-0179             
1 48212U 21031C   23263.55284308  .00000147  00000+0  36210-3 0  9991
2 48212  87.8997 128.8696 0001545  69.8066 290.3229 13.14501237116874
ONEWEB-0180             
1 48213U 21031D   23263.58666069 -.00000164  00000+0 -47683-3 0  9990
2 48213  87.8996 128.8657 0001600  69.6863 290.4439 13.14501284116760
ONEWEB-0218             
1 48214U 21031E   23263.60780707  .00000194  00000+0  48956-3 0  9995
2 48214  87.8996 128.8632 0002747  58.2986 301.8411 13.14505750116924
ONEWEB-0209             
1 48215U 21031F   23263.59724249 -.00000057  00000+0 -18758-3 0  9990
2 48215  87.8988 128.9052 0001649  75.4967 284.6346 13.14505100116927
ONEWEB-0198             
1 48216U 21031G   23263.58244130 -.00000231  00000+0 -65719-3 0  9999
2 48216  87.8988 128.9161 0001994  63.4380 296.6954 13.14501159117039
ONEWEB-0189             
1 48217U 21031H   23263.59510402 -.00000074  00000+0 -23467-3 0  9998
2 48217  87.8983 128.8925 0001891  61.3675 298.7644 13.14500564116770
ONEWEB-0196             
1 48218U 21031J   23263.57397371 -.00000213  00000+0 -60926-3 0  9991
2 48218  87.8989 128.8914 0001879  73.2427 286.8908 13.14504479116778
ONEWEB-0183             
1 48219U 21031K   23263.39424824  .00000180  00000+0  45192-3 0  9995
2 48219  87.8989 128.9472 0001597  75.4826 284.6480 13.14501328116842
ONEWEB-0185             
1 48220U 21031L   23263.57505669 -.00000217  00000+0 -62081-3 0  9993
2 48220  87.8987 128.8856 0001527  71.8146 288.3150 13.14500926116797
ONEWEB-0187             
1 48221U 21031M   23263.54966592  .00000170  00000+0  42362-3 0  9993
2 48221  87.8989 128.9196 0001661  73.9190 286.2123 13.14501004116806
ONEWEB-0192             
1 48222U 21031N   23263.59934047 -.00000011  00000+0 -64337-4 0  9992
2 48222  87.9028 128.8680 0001868  72.9457 287.1877 13.14506205116728
ONEWEB-0219             
1 48223U 21031P   23263.58031825 -.00000240  00000+0 -68182-3 0  9999
2 48223  87.8985 128.8886 0001598  70.1905 289.9397 13.14501445116926
ONEWEB-0202             
1 48224U 21031Q   23263.55918917  .00000031  00000+0  50163-4 0  9990
2 48224  87.8988 128.9127 0002396  53.1238 307.0111 13.14500872116903
ONEWEB-0204             
1 48225U 21031R   23263.36467562  .00007709  00000+0  20719-1 0  9995
2 48225  87.8973 128.9614 0001681  75.3421 284.7895 13.14581607116775
ONEWEB-0205             
1 48226U 21031S   23263.56975535 -.00000162  00000+0 -47275-3 0  9998
2 48226  87.8987 128.8922 0001726  68.6472 291.4842 13.14501587116814
ONEWEB-0206             
1 48227U 21031T   23263.61838050  .00000278  00000+0  71545-3 0  9998
2 48227  87.8995 128.8674 0001460  74.5183 285.6107 13.14503204116770
ONEWEB-0182             
1 48228U 21031U   23263.61204389  .00000361  00000+0  93902-3 0  9995
2 48228  87.8854 128.8978 0001544  74.9190 285.2110 13.14503713116985
ONEWEB-0186             
1 48229U 21031V   23263.54859981  .00000190  00000+0  47774-3 0  9998
2 48229  87.8990 128.8704 0001708  73.7064 286.4254 13.14501113116921
ONEWEB-0181             
1 48230U 21031W   23263.60144770  .00000035  00000+0  59943-4 0  9990
2 48230  87.8987 128.9319 0001845  74.5569 285.5764 13.14500895116789
ONEWEB-0188             
1 48231U 21031X   23263.56550871 -.00000077  00000+0 -24115-3 0  9999
2 48231  87.8989 128.9382 0001607  76.1539 283.9770 13.14500582116684
ONEWEB-0220             
1 48232U 21031Y   23263.60358010  .00000069  00000+0  15055-3 0  9998
2 48232  87.8991 128.8990 0001502  66.8359 293.2929 13.14501223116955
ONEWEB-0165             
1 48233U 21031Z   23263.55705435  .00000119  00000+0  28695-3 0  9990
2 48233  87.8989 128.9201 0001679  70.7173 289.4138 13.14500679116900
ONEWEB-0199             
1 48234U 21031AA  23263.61627668  .00000400  00000+0  10450-2 0  9991
2 48234  87.8986 128.8806 0001703  71.7597 288.3718 13.14503127116810
ONEWEB-0203             
1 48235U 21031AB  23263.60570147  .00000056  00000+0  11556-3 0  9996
2 48235  87.8989 128.8817 0002106  80.3562 279.7806 13.14505021116820
ONEWEB-0197             
1 48236U 21031AC  23263.59286404 -.00000089  00000+0 -27341-3 0  9992
2 48236  87.8987 128.8927 0001765  79.3720 280.7608 13.14503274116735
ONEWEB-0194             
1 48237U 21031AD  23263.56128649  .00000010  00000+0 -61756-5 0  9999
2 48237  87.8989 128.8882 0002060  84.5131 275.6234 13.14501458116900
ONEWEB-0193             
1 48238U 21031AE  23263.57820519 -.00000192  00000+0 -55149-3 0  9995
2 48238  87.8989 128.8945 0001913  71.5294 288.6044 13.14505117116856
ONEWEB-0191             
1 48239U 21031AF  23263.58878119 -.00000139  00000+0 -40921-3 0  9999
2 48239  87.8995 128.8725 0001878  77.2518 282.8821 13.14504850116719
ONEWEB-0195             
1 48240U 21031AG  23263.56658988 -.00000070  00000+0 -22229-3 0  9994
2 48240  87.8997 128.8774 0001813  64.2458 295.8859 13.14502551116693
